{"type": "FeatureCollection", "features": [ {"type": "Feature", "properties": {"norad_id": 37966, "name": "COSMOS 2251 DEB", "group": "cosmos-2251-debris", "lat": -56.588612936960544, "lon": -152.43716965736883, "alt_km": 541.8137577738626, "timestamp": "2025-12-11T08:58:27.523318+00:00", "meta": {"OBJECT_NAME": "COSMOS 2251 DEB", "OBJECT_ID": "1993-036BPR", "EPOCH": "2025-12-09T09:36:29.677536", "MEAN_MOTION": 15.12084932, "ECCENTRICITY": 0.0008975, "INCLINATION": 73.977, "RA_OF_ASC_NODE": 237.4896, "ARG_OF_PERICENTER": 112.4769, "MEAN_ANOMALY": 247.7375, "EPHEMERIS_TYPE": 0, "CLASSIFICATION_TYPE": "U", "NORAD_CAT_ID": 37966, "ELEMENT_SET_NO": 999, "REV_AT_EPOCH": 85292, "BSTAR": 0.003976161, "MEAN_MOTION_DOT": 0.00069139, "MEAN_MOTION_DDOT": 0}, "tle": {"line1": "1 37966U 93036BPR 25343.40034349  .00069139  00000+0  39762-2 0  9992", "line2": "2 37966  73.9770 237.4896 0008975 112.4769 247.7375 15.12084932852920"}}, "geometry": {"type": "Point", "coordinates": [-152.43716965736883, -56.588612936960544]}}, {"type": "Feature", "properties": {"norad_id": 37967, "name": "COSMOS 2251 DEB", "group": "cosmos-2251-debris", "lat": -35.92251000501153, "lon": 127.92804653798308, "alt_km": 683.9803029067925, "timestamp": "2025-12-11T08:58:27.523329+00:00", "meta": {"OBJECT_NAME": "COSMOS 2251 DEB", "OBJECT_ID": "1993-036BPS", "EPOCH": "2025-12-10T16:28:42.146688", "MEAN_MOTION": 14.4047963, "ECCENTRICITY": 0.01508864, "INCLINATION": 74.015, "RA_OF_ASC_NODE": 141.1866, "ARG_OF_PERICENTER": 280.4085, "MEAN_ANOMALY": 78.0095, "EPHEMERIS_TYPE": 0, "CLASSIFICATION_TYPE": "U", "NORAD_CAT_ID": 37967, "ELEMENT_SET_NO": 999, "REV_AT_EPOCH": 64706, "BSTAR": 0.0023977147, "MEAN_MOTION_DOT": 8.707e-05, "MEAN_MOTION_DDOT": 0}, "tle": {"line1": "1 37967U 93036BPS 25344.68659892  .00008707  00000+0  23977-2 0  9995", "line2": "2 37967  74.0150 141.1866 0150886 280.4085  78.0095 14.40479630647063"}}, "geometry": {"type": "Point", "coordinates": [127.92804653798308, -35.92251000501153]}}, {"type": "Feature", "properties": {"norad_id": 37968, "name": "COSMOS 2251 DEB", "group": "cosmos-2251-debris", "lat": 1.81549807484694, "lon": 93.42251255527053, "alt_km": 614.913221236734, "timestamp": "2025-12-11T08:58:27.523340+00:00", "meta": {"OBJECT_NAME": "COSMOS 2251 DEB", "OBJECT_ID": "1993-036BPT", "EPOCH": "2025-12-10T12:59:12.329088", "MEAN_MOTION": 15.00519142, "ECCENTRICITY": 0.0080599, "INCLINATION": 74.0006, "RA_OF_ASC_NODE": 275.6407, "ARG_OF_PERICENTER": 31.9786, "MEAN_ANOMALY": 328.6254, "EPHEMERIS_TYPE": 0, "CLASSIFICATION_TYPE": "U", "NORAD_CAT_ID": 37968, "ELEMENT_SET_NO": 999, "REV_AT_EPOCH": 60186, "BSTAR": 0.0016056, "MEAN_MOTION_DOT": 0.00021716, "MEAN_MOTION_DDOT": 0}, "tle": {"line1": "1 37968U 93036BPT 25344.54111492  .00021716  00000+0  16056-2 0  9995", "line2": "2 37968  74.0006 275.6407 0080599  31.9786 328.6254 15.00519142601867"}}, "geometry": {"type": "Point", "coordinates": [93.42251255527053, 1.81549807484694]}}, {"type": "Feature", "properties": {"norad_id": 37971, "name": "COSMOS 2251 DEB", "group": "cosmos-2251-debris", "lat": -9.041473240899695, "lon": 41.68900633338982, "alt_km": 780.7513023956117, "timestamp": "2025-12-11T08:58:27.523350+00:00", "meta": {"OBJECT_NAME": "COSMOS 2251 DEB", "OBJECT_ID": "1993-036BPW", "EPOCH": "2025-12-10T21:24:57.671424", "MEAN_MOTION": 14.48591586, "ECCENTRICITY": 0.0067521, "INCLINATION": 73.9941, "RA_OF_ASC_NODE": 45.2113, "ARG_OF_PERICENTER": 184.4015, "MEAN_ANOMALY": 175.656, "EPHEMERIS_TYPE": 0, "CLASSIFICATION_TYPE": "U", "NORAD_CAT_ID": 37971, "ELEMENT_SET_NO": 999, "REV_AT_EPOCH": 60651, "BSTAR": 0.0030969, "MEAN_MOTION_DOT": 0.00011978, "MEAN_MOTION_DDOT": 0}, "tle": {"line1": "1 37971U 93036BPW 25344.89233416  .00011978  00000+0  30969-2 0  9996", "line2": "2 37971  73.9941  45.2113 0067521 184.4015 175.6560 14.48591586606511"}}, "geometry": {"type": "Point", "coordinates": [41.68900633338982, -9.041473240899695]}}, {"type": "Feature", "properties": {"norad_id": 37975, "name": "COSMOS 2251 DEB", "group": "cosmos-2251-debris", "lat": 68.64188775877052, "lon": 99.55647303099713, "alt_km": 692.1720391339704, "timestamp": "2025-12-11T08:58:27.523361+00:00", "meta": {"OBJECT_NAME": "COSMOS 2251 DEB", "OBJECT_ID": "1993-036BQA", "EPOCH": "2025-12-11T05:14:57.228288", "MEAN_MOTION": 14.7591978, "ECCENTRICITY": 0.0096162, "INCLINATION": 74.0026, "RA_OF_ASC_NODE": 327.0525, "ARG_OF_PERICENTER": 316.7457, "MEAN_ANOMALY": 42.6192, "EPHEMERIS_TYPE": 0, "CLASSIFICATION_TYPE": "U", "NORAD_CAT_ID": 37975, "ELEMENT_SET_NO": 999, "REV_AT_EPOCH": 69723, "BSTAR": 0.0058445, "MEAN_MOTION_DOT": 0.00043557, "MEAN_MOTION_DDOT": 0}, "tle": {"line1": "1 37975U 93036BQA 25345.21871792  .00043557  00000+0  58445-2 0  9999", "line2": "2 37975  74.0026 327.0525 0096162 316.7457  42.6192 14.75919780697235"}}, "geometry": {"type": "Point", "coordinates": [99.55647303099713, 68.64188775877052]}}, {"type": "Feature", "properties": {"norad_id": 37978, "name": "COSMOS 2251 DEB", "group": "cosmos-2251-debris", "lat": 69.53305500540058, "lon": 142.3035140167001, "alt_km": 295.0686821480367, "timestamp": "2025-12-11T08:58:27.523371+00:00", "meta": {"OBJECT_NAME": "COSMOS 2251 DEB", "OBJECT_ID": "1993-036BQD", "EPOCH": "2025-11-19T05:08:53.100672", "MEAN_MOTION": 15.61137081, "ECCENTRICITY": 0.00148985, "INCLINATION": 74.0238, "RA_OF_ASC_NODE": 142.2198, "ARG_OF_PERICENTER": 140.9849, "MEAN_ANOMALY": 219.2448, "EPHEMERIS_TYPE": 0, "CLASSIFICATION_TYPE": "U", "NORAD_CAT_ID": 37978, "ELEMENT_SET_NO": 999, "REV_AT_EPOCH": 8032, "BSTAR": 0.0043958825, "MEAN_MOTION_DOT": 0.0039117, "MEAN_MOTION_DDOT": 0}, "tle": {"line1": "1 37978U 93036BQD 25323.21450348  .00391170  00000+0  43959-2 0  9999", "line2": "2 37978  74.0238 142.2198 0014898 140.9849 219.2448 15.61137081 80328"}}, "geometry": {"type": "Point", "coordinates": [142.3035140167001, 69.53305500540058]}}, {"type": "Feature", "properties": {"norad_id": 37985, "name": "COSMOS 2251 DEB", "group": "cosmos-2251-debris", "lat": 9.34586833168183, "lon": -89.05435214459402, "alt_km": 760.9912572514131, "timestamp": "2025-12-11T08:58:27.523381+00:00", "meta": {"OBJECT_NAME": "COSMOS 2251 DEB", "OBJECT_ID": "1993-036BQL", "EPOCH": "2025-12-10T12:51:29.994048", "MEAN_MOTION": 14.35481838, "ECCENTRICITY": 0.0020726, "INCLINATION": 74.0254, "RA_OF_ASC_NODE": 269.7813, "ARG_OF_PERICENTER": 33.1877, "MEAN_ANOMALY": 327.0571, "EPHEMERIS_TYPE": 0, "CLASSIFICATION_TYPE": "U", "NORAD_CAT_ID": 37985, "ELEMENT_SET_NO": 999, "REV_AT_EPOCH": 64885, "BSTAR": 9.1575e-05, "MEAN_MOTION_DOT": 2.38e-06, "MEAN_MOTION_DDOT": 0}, "tle": {"line1": "1 37985U 93036BQL 25344.53576382  .00000238  00000+0  91575-4 0  9993", "line2": "2 37985  74.0254 269.7813 0020726  33.1877 327.0571 14.35481838648859"}}, "geometry": {"type": "Point", "coordinates": [-89.05435214459402, 9.34586833168183]}}, {"type": "Feature", "properties": {"norad_id": 37988, "name": "COSMOS 2251 DEB", "group": "cosmos-2251-debris", "lat": -26.7737010285402, "lon": -145.0470260262637, "alt_km": 705.6968652654914, "timestamp": "2025-12-11T08:58:27.523392+00:00", "meta": {"OBJECT_NAME": "COSMOS 2251 DEB", "OBJECT_ID": "1993-036BQP", "EPOCH": "2025-12-10T09:09:04.843584", "MEAN_MOTION": 14.68826151, "ECCENTRICITY": 0.00631322, "INCLINATION": 74.0642, "RA_OF_ASC_NODE": 28.581, "ARG_OF_PERICENTER": 66.7432, "MEAN_ANOMALY": 294.0368, "EPHEMERIS_TYPE": 0, "CLASSIFICATION_TYPE": "U", "NORAD_CAT_ID": 37988, "ELEMENT_SET_NO": 999, "REV_AT_EPOCH": 23361, "BSTAR": 0.0011678805, "MEAN_MOTION_DOT": 7.005e-05, "MEAN_MOTION_DDOT": 0}, "tle": {"line1": "1 37988U 93036BQP 25344.38130606  .00007005  00000+0  11679-2 0  9998", "line2": "2 37988  74.0642  28.5810 0063132  66.7432 294.0368 14.68826151233616"}}, "geometry": {"type": "Point", "coordinates": [-145.0470260262637, -26.7737010285402]}}, {"type": "Feature", "properties": {"norad_id": 37993, "name": "COSMOS 2251 DEB", "group": "cosmos-2251-debris", "lat": 27.80982206491419, "lon": 178.21568454389322, "alt_km": 702.2944471892679, "timestamp": "2025-12-11T08:58:27.523402+00:00", "meta": {"OBJECT_NAME": "COSMOS 2251 DEB", "OBJECT_ID": "1993-036BQU", "EPOCH": "2025-12-09T05:51:24.736320", "MEAN_MOTION": 14.59845478, "ECCENTRICITY": 0.0022054, "INCLINATION": 74.0217, "RA_OF_ASC_NODE": 173.5884, "ARG_OF_PERICENTER": 262.4751, "MEAN_ANOMALY": 97.3909, "EPHEMERIS_TYPE": 0, "CLASSIFICATION_TYPE": "U", "NORAD_CAT_ID": 37993, "ELEMENT_SET_NO": 999, "REV_AT_EPOCH": 65266, "BSTAR": 0.0017274, "MEAN_MOTION_DOT": 8.27e-05, "MEAN_MOTION_DDOT": 0}, "tle": {"line1": "1 37993U 93036BQU 25343.24403630  .00008270  00000+0  17274-2 0  9990", "line2": "2 37993  74.0217 173.5884 0022054 262.4751  97.3909 14.59845478652667"}}, "geometry": {"type": "Point", "coordinates": [178.21568454389322, 27.80982206491419]}}, {"type": "Feature", "properties": {"norad_id": 37994, "name": "COSMOS 2251 DEB", "group": "cosmos-2251-debris", "lat": -34.38937454310505, "lon": 109.50873546371518, "alt_km": 778.4627364861117, "timestamp": "2025-12-11T08:58:27.523413+00:00", "meta": {"OBJECT_NAME": "COSMOS 2251 DEB", "OBJECT_ID": "1993-036BQV", "EPOCH": "2025-12-11T04:38:18.161664", "MEAN_MOTION": 14.39617699, "ECCENTRICITY": 0.0022867, "INCLINATION": 74.0368, "RA_OF_ASC_NODE": 278.5442, "ARG_OF_PERICENTER": 358.2225, "MEAN_ANOMALY": 1.8844, "EPHEMERIS_TYPE": 0, "CLASSIFICATION_TYPE": "U", "NORAD_CAT_ID": 37994, "ELEMENT_SET_NO": 999, "REV_AT_EPOCH": 77042, "BSTAR": 0.00059505, "MEAN_MOTION_DOT": 1.839e-05, "MEAN_MOTION_DDOT": 0}, "tle": {"line1": "1 37994U 93036BQV 25345.19326576  .00001839  00000+0  59505-3 0  9998", "line2": "2 37994  74.0368 278.5442 0022867 358.2225   1.8844 14.39617699770426"}}, "geometry": {"type": "Point", "coordinates": [109.50873546371518, -34.38937454310505]}}]}